start=new Date('2022-03-26T00:00:00.000Z').valueOf();
sats=[{"CENTER_NAME":"EARTH","COUNTRY_CODE":"US","LAUNCH_DATE":"2022-01-06","EPOCH":"2022-03-25T14:00:01.000224","GP_ID":"199640239","FILE":"3373758","ECCENTRICITY":"0.00018300","DECAY_DATE":null,"TLE_LINE2":"2 50844  53.2151 186.4410 0001830  39.0466  24.8948 15.08828305 13384","PERIOD":"95.438","MEAN_ANOMALY":"24.8948","TIME_SYSTEM":"UTC","TLE_LINE1":"1 50844U 22001AT  22084.58334491 -.00004119  00000-0 -24091-3 0  9995","RA_OF_ASC_NODE":"186.4410","SEMIMAJOR_AXIS":"6917.916","MEAN_ELEMENT_THEORY":"SGP4","MEAN_MOTION_DDOT":"0.0000000000000","APOAPSIS":"541.047","SITE":"AFETR","RCS_SIZE":"LARGE","ELEMENT_SET_NO":"999","MEAN_MOTION":"15.08828305","OBJECT_ID":"2022-001AT","EPHEMERIS_TYPE":"0","ARG_OF_PERICENTER":"39.0466","REF_FRAME":"TEME","BSTAR":"-0.00024091000000","NORAD_CAT_ID":"50844","REV_AT_EPOCH":"1338","PERIAPSIS":"538.515","INCLINATION":"53.2151","OBJECT_TYPE":"PAYLOAD","MEAN_MOTION_DOT":"-0.00004119","CLASSIFICATION_TYPE":"U","OBJECT_NAME":"STARLINK-3326"},{"ARG_OF_PERICENTER":"68.2552","REF_FRAME":"TEME","OBJECT_ID":"2022-001AU","EPHEMERIS_TYPE":"0","MEAN_MOTION":"15.08841490","ELEMENT_SET_NO":"999","RCS_SIZE":"LARGE","OBJECT_NAME":"STARLINK-3230","MEAN_MOTION_DOT":"0.00004168","CLASSIFICATION_TYPE":"U","OBJECT_TYPE":"PAYLOAD","INCLINATION":"53.2159","PERIAPSIS":"538.649","REV_AT_EPOCH":"362","NORAD_CAT_ID":"50845","BSTAR":"0.00027983000000","TLE_LINE1":"1 50845U 22001AU  22084.58334491  .00004168  00000-0  27983-3 0  9991","MEAN_ANOMALY":"115.6809","TIME_SYSTEM":"UTC","PERIOD":"95.437","TLE_LINE2":"2 50845  53.2159 186.4381 0001579  68.2552 115.6809 15.08841490  3621","DECAY_DATE":null,"ECCENTRICITY":"0.00015790","FILE":"3373822","GP_ID":"199664969","LAUNCH_DATE":"2022-01-06","COUNTRY_CODE":"US","EPOCH":"2022-03-25T14:00:01.000224","CENTER_NAME":"EARTH","APOAPSIS":"540.833","SITE":"AFETR","MEAN_MOTION_DDOT":"0.0000000000000","SEMIMAJOR_AXIS":"6917.876","MEAN_ELEMENT_THEORY":"SGP4","RA_OF_ASC_NODE":"186.4381"},{"SEMIMAJOR_AXIS":"6917.923","MEAN_ELEMENT_THEORY":"SGP4","RA_OF_ASC_NODE":"186.4398","SITE":"AFETR","APOAPSIS":"541.211","MEAN_MOTION_DDOT":"0.0000000000000","FILE":"3373758","GP_ID":"199639929","LAUNCH_DATE":"2022-01-06","EPOCH":"2022-03-25T14:00:01.000224","COUNTRY_CODE":"US","CENTER_NAME":"EARTH","TLE_LINE1":"1 50846U 22001AV  22084.58334491 -.00002411  00000-0 -13346-3 0  9991","MEAN_ANOMALY":"37.8182","TIME_SYSTEM":"UTC","PERIOD":"95.438","TLE_LINE2":"2 50846  53.2148 186.4398 0002056  46.1912  37.8182 15.08825921 13388","ECCENTRICITY":"0.00020560","DECAY_DATE":null,"INCLINATION":"53.2148","PERIAPSIS":"538.366","REV_AT_EPOCH":"1338","NORAD_CAT_ID":"50846","BSTAR":"-0.00013346000000","CLASSIFICATION_TYPE":"U","MEAN_MOTION_DOT":"-0.00002411","OBJECT_NAME":"STARLINK-3308","OBJECT_TYPE":"PAYLOAD","ELEMENT_SET_NO":"999","RCS_SIZE":"LARGE","ARG_OF_PERICENTER":"46.1912","REF_FRAME":"TEME","OBJECT_ID":"2022-001AV","EPHEMERIS_TYPE":"0","MEAN_MOTION":"15.08825921"},{"TLE_LINE1":"1 50847U 22001AW  22084.58334491 -.00005095  00000-0 -30230-3 0  9994","MEAN_ANOMALY":"260.4188","TIME_SYSTEM":"UTC","TLE_LINE2":"2 50847  53.2118 186.4567 0001785  43.5264 260.4188 15.08829805 13300","PERIOD":"95.438","ECCENTRICITY":"0.00017850","DECAY_DATE":null,"FILE":"3373758","LAUNCH_DATE":"2022-01-06","EPOCH":"2022-03-25T14:00:01.000224","COUNTRY_CODE":"US","GP_ID":"199640234","CENTER_NAME":"EARTH","SITE":"AFETR","APOAPSIS":"541.011","MEAN_MOTION_DDOT":"0.0000000000000","MEAN_ELEMENT_THEORY":"SGP4","SEMIMAJOR_AXIS":"6917.912","RA_OF_ASC_NODE":"186.4567","REF_FRAME":"TEME","ARG_OF_PERICENTER":"43.5264","OBJECT_ID":"2022-001AW","EPHEMERIS_TYPE":"0","MEAN_MOTION":"15.08829805","ELEMENT_SET_NO":"999","RCS_SIZE":"LARGE","OBJECT_NAME":"STARLINK-3319","MEAN_MOTION_DOT":"-0.00005095","CLASSIFICATION_TYPE":"U","OBJECT_TYPE":"PAYLOAD","INCLINATION":"53.2118","NORAD_CAT_ID":"50847","PERIAPSIS":"538.542","REV_AT_EPOCH":"1330","BSTAR":"-0.00030230000000"},{"FILE":"3373767","CENTER_NAME":"EARTH","COUNTRY_CODE":"US","LAUNCH_DATE":"2022-01-06","EPOCH":"2022-03-25T14:00:01.000224","GP_ID":"199640255","MEAN_ANOMALY":"61.6229","TIME_SYSTEM":"UTC","TLE_LINE1":"1 50848U 22001AX  22084.58334491 -.00022104  00000-0 -13748-2 0  9999","ECCENTRICITY":"0.00020820","DECAY_DATE":null,"TLE_LINE2":"2 50848  53.2168 186.4386 0002082  42.3660  61.6229 15.08843215 13413","PERIOD":"95.437","MEAN_ELEMENT_THEORY":"SGP4","SEMIMAJOR_AXIS":"6917.871","RA_OF_ASC_NODE":"186.4386","APOAPSIS":"541.176","SITE":"AFETR","MEAN_MOTION_DDOT":"0.0000000000000","ELEMENT_SET_NO":"999","RCS_SIZE":"LARGE","OBJECT_ID":"2022-001AX","EPHEMERIS_TYPE":"0","REF_FRAME":"TEME","ARG_OF_PERICENTER":"42.3660","MEAN_MOTION":"15.08843215","NORAD_CAT_ID":"50848","PERIAPSIS":"538.295","REV_AT_EPOCH":"1341","INCLINATION":"53.2168","BSTAR":"-0.00137480000000","MEAN_MOTION_DOT":"-0.00022104","CLASSIFICATION_TYPE":"U","OBJECT_NAME":"STARLINK-3315","OBJECT_TYPE":"PAYLOAD"},{"FILE":"3374198","GP_ID":"199674094","LAUNCH_DATE":"2022-01-06","COUNTRY_CODE":"US","EPOCH":"2022-03-25T22:00:01.999584","CENTER_NAME":"EARTH","TLE_LINE1":"1 50849U 22001AY  22084.91668981 -.00027198  00000-0 -16974-2 0  9993","MEAN_ANOMALY":"16.6753","TIME_SYSTEM":"UTC","PERIOD":"95.438","TLE_LINE2":"2 50849  53.2146 184.9441 0001915  39.1001  16.6753 15.08835377 13357","ECCENTRICITY":"0.00019150","DECAY_DATE":null,"SEMIMAJOR_AXIS":"6917.895","MEAN_ELEMENT_THEORY":"SGP4","RA_OF_ASC_NODE":"184.9441","APOAPSIS":"541.084","SITE":"AFETR","MEAN_MOTION_DDOT":"0.0000000000000","ELEMENT_SET_NO":"999","RCS_SIZE":"LARGE","REF_FRAME":"TEME","ARG_OF_PERICENTER":"39.1001","OBJECT_ID":"2022-001AY","EPHEMERIS_TYPE":"0","MEAN_MOTION":"15.08835377","INCLINATION":"53.2146","PERIAPSIS":"538.435","REV_AT_EPOCH":"1335","NORAD_CAT_ID":"50849","BSTAR":"-0.00169740000000","CLASSIFICATION_TYPE":"U","MEAN_MOTION_DOT":"-0.00027198","OBJECT_NAME":"STARLINK-3311","OBJECT_TYPE":"PAYLOAD"},{"TIME_SYSTEM":"UTC","MEAN_ANOMALY":"236.3873","TLE_LINE1":"1 50850U 22001AZ  22084.58334491 -.00018463  00000-0 -12733-3 0  9999","ECCENTRICITY":"0.00041510","DECAY_DATE":null,"TLE_LINE2":"2 50850  53.2163 174.5555 0004151 348.7085 236.3873 15.73198223 13544","PERIOD":"91.533","FILE":"3373767","CENTER_NAME":"EARTH","COUNTRY_CODE":"US","LAUNCH_DATE":"2022-01-06","EPOCH":"2022-03-25T14:00:01.000224","GP_ID":"199640251","SITE":"AFETR","APOAPSIS":"352.558","MEAN_MOTION_DDOT":"0.0000000000000","SEMIMAJOR_AXIS":"6727.900","MEAN_ELEMENT_THEORY":"SGP4","RA_OF_ASC_NODE":"174.5555","EPHEMERIS_TYPE":"0","OBJECT_ID":"2022-001AZ","REF_FRAME":"TEME","ARG_OF_PERICENTER":"348.7085","MEAN_MOTION":"15.73198223","ELEMENT_SET_NO":"999","RCS_SIZE":"LARGE","MEAN_MOTION_DOT":"-0.00018463","OBJECT_NAME":"STARLINK-3312","CLASSIFICATION_TYPE":"U","OBJECT_TYPE":"PAYLOAD","NORAD_CAT_ID":"50850","PERIAPSIS":"346.972","REV_AT_EPOCH":"1354","INCLINATION":"53.2163","BSTAR":"-0.00012733000000"},{"FILE":"3373767","GP_ID":"199639946","LAUNCH_DATE":"2022-01-06","EPOCH":"2022-03-25T14:00:01.000224","COUNTRY_CODE":"US","CENTER_NAME":"EARTH","TLE_LINE1":"1 50851U 22001BA  22084.58334491 -.00022097  00000-0 -13748-2 0  9994","MEAN_ANOMALY":"83.6314","TIME_SYSTEM":"UTC","PERIOD":"95.438","TLE_LINE2":"2 50851  53.2150 186.4382 0001941  40.4507  83.6314 15.08832080 13389","DECAY_DATE":null,"ECCENTRICITY":"0.00019410","SEMIMAJOR_AXIS":"6917.905","MEAN_ELEMENT_THEORY":"SGP4","RA_OF_ASC_NODE":"186.4382","APOAPSIS":"541.112","SITE":"AFETR","MEAN_MOTION_DDOT":"0.0000000000000","ELEMENT_SET_NO":"999","RCS_SIZE":"LARGE","ARG_OF_PERICENTER":"40.4507","REF_FRAME":"TEME","EPHEMERIS_TYPE":"0","OBJECT_ID":"2022-001BA","MEAN_MOTION":"15.08832080","INCLINATION":"53.2150","PERIAPSIS":"538.427","REV_AT_EPOCH":"1338","NORAD_CAT_ID":"50851","BSTAR":"-0.00137480000000","MEAN_MOTION_DOT":"-0.00022097","CLASSIFICATION_TYPE":"U","OBJECT_NAME":"STARLINK-3314","OBJECT_TYPE":"PAYLOAD"},{"NORAD_CAT_ID":"51104","REV_AT_EPOCH":"1167","PERIAPSIS":"347.699","INCLINATION":"53.2130","BSTAR":"0.00010945000000","CLASSIFICATION_TYPE":"U","MEAN_MOTION_DOT":"0.00014757","OBJECT_NAME":"STARLINK-3366","OBJECT_TYPE":"PAYLOAD","ELEMENT_SET_NO":"999","RCS_SIZE":"LARGE","OBJECT_ID":"2022-005A","EPHEMERIS_TYPE":"0","REF_FRAME":"TEME","ARG_OF_PERICENTER":"16.7897","MEAN_MOTION":"15.73183360","MEAN_ELEMENT_THEORY":"SGP4","SEMIMAJOR_AXIS":"6727.943","RA_OF_ASC_NODE":"308.9193","SITE":"AFETR","APOAPSIS":"351.916","MEAN_MOTION_DDOT":"0.0000000000000","FILE":"3373985","CENTER_NAME":"EARTH","EPOCH":"2022-03-25T20:00:01.000224","LAUNCH_DATE":"2022-01-19","COUNTRY_CODE":"US","GP_ID":"199669226","MEAN_ANOMALY":"333.1817","TIME_SYSTEM":"UTC","TLE_LINE1":"1 51104U 22005A   22084.83334491  .00014757  00000-0  10945-3 0  9997","DECAY_DATE":null,"ECCENTRICITY":"0.00031340","TLE_LINE2":"2 51104  53.2130 308.9193 0003134  16.7897 333.1817 15.73183360 11677","PERIOD":"91.534"},{"PERIAPSIS":"347.676","REV_AT_EPOCH":"1167","NORAD_CAT_ID":"51105","INCLINATION":"53.2144","BSTAR":"0.00010043000000","MEAN_MOTION_DOT":"0.00013482","OBJECT_NAME":"STARLINK-3350","CLASSIFICATION_TYPE":"U","OBJECT_TYPE":"PAYLOAD","ELEMENT_SET_NO":"999","RCS_SIZE":"LARGE","EPHEMERIS_TYPE":"0","OBJECT_ID":"2022-005B","REF_FRAME":"TEME","ARG_OF_PERICENTER":"14.3471","MEAN_MOTION":"15.73174203","SEMIMAJOR_AXIS":"6727.969","MEAN_ELEMENT_THEORY":"SGP4","RA_OF_ASC_NODE":"308.9322","APOAPSIS":"351.991","SITE":"AFETR","MEAN_MOTION_DDOT":"0.0000000000000","FILE":"3373985","CENTER_NAME":"EARTH","GP_ID":"199668730","EPOCH":"2022-03-25T20:00:01.000224","LAUNCH_DATE":"2022-01-19","COUNTRY_CODE":"US","MEAN_ANOMALY":"328.6988","TIME_SYSTEM":"UTC","TLE_LINE1":"1 51105U 22005B   22084.83334491  .00013482  00000-0  10043-3 0  9991","DECAY_DATE":null,"ECCENTRICITY":"0.00032070","PERIOD":"91.535","TLE_LINE2":"2 51105  53.2144 308.9322 0003207  14.3471 328.6988 15.73174203 11674"}];
